GLOBALSTAR M069         
1 31573U 07020C   26160.51658727 -.00000095  00000+0 -20071-4 0  9993
2 31573  52.0041 273.8373 0002493 132.3796 310.6592 12.23470935877863
GLOBALSTAR M072         
1 31574U 07020D   26160.15656096 -.00000069  00000+0  21106-3 0  9990
2 31574  51.9912 121.6245 0001386 309.6353  68.2651 11.91658476874024
GLOBALSTAR M066         
1 32265U 07048C   26160.21992855 -.00000133  00000+0 -32513-3 0  9998
2 32265  51.9592  80.7833 0005349  27.0371 140.0303 12.30388506859246
GLOBALSTAR M079         
1 37188U 10054A   26160.20833128 -.00000089  00000+0  81140-4 0  9994
2 37188  52.0018 132.9579 0000516   3.1477  14.7880 12.62265983721546
GLOBALSTAR M074         
1 37189U 10054B   26160.23478750 -.00000094  00000+0  54346-4 0  9998
2 37189  51.9995 132.1436 0000367  45.3710 333.0078 12.62268424722152
GLOBALSTAR M076         
1 37190U 10054C   26160.18192304 -.00000094  00000+0  53985-4 0  9990
2 37190  52.0008 132.5067 0000561  33.0301 345.2723 12.62261827721860
GLOBALSTAR M077         
1 37191U 10054D   26160.40720236 -.00000074  00000+0  71244-4 0  9993
2 37191  51.9930 199.0437 0002857 158.6106 219.8404 11.67547589720237
GLOBALSTAR M075         
1 37192U 10054E   26160.37295808 -.00000091  00000+0  69333-4 0  9997
2 37192  51.9919 173.9859 0000034 137.3229 329.2254 12.62267348720955
GLOBALSTAR M073         
1 37193U 10054F   26160.13574630 -.00000101  00000+0  15733-4 0  9992
2 37193  52.0060  88.8003 0000762  31.5254  75.2287 12.62262133722910
GLOBALSTAR M083         
1 37739U 11033A   26160.40148463 -.00000100  00000+0  19829-4 0  9996
2 37739  51.9872  36.2311 0000843  55.6570 120.6525 12.62262946691964
GLOBALSTAR M088         
1 37740U 11033B   26160.13778839 -.00000092  00000+0  63951-4 0  9999
2 37740  52.0228 303.4440 0000832 114.3972  61.2941 12.62268590687476
GLOBALSTAR M091         
1 37741U 11033C   26160.44568794 -.00000097  00000+0  37985-4 0  9994
2 37741  52.0003 265.4836 0000499 139.8669 296.7250 12.62263769688302
GLOBALSTAR M085         
1 37742U 11033D   26160.41973389 -.00000094  00000+0  56722-4 0  9999
2 37742  52.0110 216.8484 0000182 190.0031 188.6885 12.62263945688817
GLOBALSTAR M081         
1 37743U 11033E   26160.46457310 -.00000096  00000+0  45147-4 0  9997
2 37743  51.9940 219.1569 0000217 129.5643 332.5715 12.62264813688965
GLOBALSTAR M089         
1 37744U 11033F   26160.32730089 -.00000082  00000+0  12193-3 0  9999
2 37744  51.9904 173.7346 0000361 101.1506 277.7004 12.62267045689791
GLOBALSTAR M084         
1 38040U 11080A   26160.45418479 -.00000104  00000+0 -31317-5 0  9998
2 38040  52.0027  40.8240 0001034  74.1372 101.5231 12.62267505667786
GLOBALSTAR M080         
1 38041U 11080B   26160.42559024 -.00000103  00000+0  35377-5 0  9996
2 38041  52.0076  42.6265 0000302  68.2717 107.3876 12.62269275667901
GLOBALSTAR M082         
1 38042U 11080C   26160.28259801 -.00000094  00000+0  54641-4 0  9994
2 38042  52.0097 358.5617 0000541  87.7473  87.9649 12.62269894668599
GLOBALSTAR M092         
1 38043U 11080D   26160.06357128 -.00000094  00000+0  52142-4 0  9996
2 38043  52.0085  89.6245 0000551  52.5106 326.4006 12.62266890667028
GLOBALSTAR M090         
1 38044U 11080E   26159.73406631 -.00000090  00000+0  74584-4 0  9993
2 38044  52.0144 354.1848 0000803  80.8408 359.9677 12.62269016668640
GLOBALSTAR M086         
1 38045U 11080F   26160.25103961 -.00000085  00000+0  10280-3 0  9999
2 38045  51.9914 352.5542 0001638  53.5584 118.0501 12.62286591668654
GLOBALSTAR M097         
1 39072U 13005A   26160.48190928 -.00000112  00000+0 -45752-4 0  9998
2 39072  52.0053 266.7916 0000444 122.6191 237.4718 12.62247113615934
GLOBALSTAR M093         
1 39073U 13005B   26160.53442051 -.00000095  00000+0  47141-4 0  9995
2 39073  52.0109 259.9758 0000308 106.8967 253.1934 12.62265753615899
GLOBALSTAR M094         
1 39074U 13005C   26160.29678669 -.00000089  00000+0  79788-4 0  9990
2 39074  51.9929 174.8235 0000211 337.2221  22.8636 12.62268549617471
GLOBALSTAR M096         
1 39075U 13005D   26160.46861007 -.00000094  00000+0  56147-4 0  9990
2 39075  52.0059 223.0966 0000171 165.8515 194.2356 12.62265414616416
GLOBALSTAR M078         
1 39076U 13005E   26160.12484946 -.00000155  00000+0 -28607-3 0  9995
2 39076  51.9893 308.1620 0000587 197.5024 162.5822 12.62259231614998
GLOBALSTAR M095         
1 39077U 13005F   26160.15162373 -.00000097  00000+0  38663-4 0  9994
2 39077  52.0095 305.6732 0000374 122.4421 237.6482 12.62263356614857
GLOBALSTAR M087         
1 52888U 22064A   26160.08571744 -.00000093  00000+0  58463-4 0  9998
2 52888  51.9997  87.1163 0000591  19.9401 340.1489 12.62268960190111
